SAT00134
1 00135U   20000A 25089.00000000  .00000000  00000-0  00000-0 0  9995
2 00135  70.0000 234.0000 0000000   0.0000 167.4000 15.01307642000004
SAT00135
1 00136U   20000A 25089.00000000  .00000000  00000-0  00000-0 0  9996
2 00136  70.0000 234.0000 0000000   0.0000 203.4000 15.01307642000006
SAT00136
1 00137U   20000A 25089.00000000  .00000000  00000-0  00000-0 0  9997
2 00137  70.0000 234.0000 0000000   0.0000 239.4000 15.01307642000006
SAT00137
1 00138U   20000A 25089.00000000  .00000000  00000-0  00000-0 0  9998
2 00138  70.0000 234.0000 0000000   0.0000 275.4000 15.01307642000007
SAT00138
1 00139U   20000A 25089.00000000  .00000000  00000-0  00000-0 0  9999
2 00139  70.0000 234.0000 0000000   0.0000 311.4000 15.01307642000009
SAT00139
1 00140U   20000A 25089.00000000  .00000000  00000-0  00000-0 0  9991
2 00140  70.0000 234.0000 0000000   0.0000 347.4000 15.01307642000000
SAT00140
1 00141U   20000A 25089.00000000  .00000000  00000-0  00000-0 0  9992
2 00141  70.0000 252.0000 0000000   0.0000  25.2000 15.01307642000002
SAT00141
1 00142U   20000A 25089.00000000  .00000000  00000-0  00000-0 0  9993
2 00142  70.0000 252.0000 0000000   0.0000  61.2000 15.01307642000003
SAT00142
1 00143U   20000A 25089.00000000  .00000000  00000-0  00000-0 0  9994
2 00143  70.0000 252.0000 0000000   0.0000  97.2000 15.01307642000003
SAT00143
1 00144U   20000A 25089.00000000  .00000000  00000-0  00000-0 0  9995
2 00144  70.0000 252.0000 0000000   0.0000 133.2000 15.01307642000005
SAT00144
1 00145U   20000A 25089.00000000  .00000000  00000-0  00000-0 0  9996
2 00145  70.0000 252.0000 0000000   0.0000 169.2000 15.01307642000005
SAT00145
1 00146U   20000A 25089.00000000  .00000000  00000-0  00000-0 0  9997
2 00146  70.0000 252.0000 0000000   0.0000 205.2000 15.01307642000007
SAT00146
1 00147U   20000A 25089.00000000  .00000000  00000-0  00000-0 0  9998
2 00147  70.0000 252.0000 0000000   0.0000 241.2000 15.01307642000008
SAT00147
1 00148U   20000A 25089.00000000  .00000000  00000-0  00000-0 0  9999
2 00148  70.0000 252.0000 0000000   0.0000 277.2000 15.01307642000008
SAT00148
1 00149U   20000A 25089.00000000  .00000000  00000-0  00000-0 0  9990
2 00149  70.0000 252.0000 0000000   0.0000 313.2000 15.01307642000000
SAT00149
1 00150U   20000A 25089.00000000  .00000000  00000-0  00000-0 0  9992
2 00150  70.0000 252.0000 0000000   0.0000 349.2000 15.01307642000001
SAT00150
1 00151U   20000A 25089.00000000  .00000000  00000-0  00000-0 0  9993
2 00151  70.0000 270.0000 0000000   0.0000  27.0000 15.01307642000003
SAT00151
1 00152U   20000A 25089.00000000  .00000000  00000-0  00000-0 0  9994
2 00152  70.0000 270.0000 0000000   0.0000  63.0000 15.01307642000004
SAT00152
1 00153U   20000A 25089.00000000  .00000000  00000-0  00000-0 0  9995
2 00153  70.0000 270.0000 0000000   0.0000  99.0000 15.01307642000004
SAT00153
1 00154U   20000A 25089.00000000  .00000000  00000-0  00000-0 0  9996
2 00154  70.0000 270.0000 0000000   0.0000 135.0000 15.01307642000006
SAT00154
1 00155U   20000A 25089.00000000  .00000000  00000-0  00000-0 0  9997
2 00155  70.0000 270.0000 0000000   0.0000 171.0000 15.01307642000007
SAT00155
1 00156U   20000A 25089.00000000  .00000000  00000-0  00000-0 0  9998
2 00156  70.0000 270.0000 0000000   0.0000 207.0000 15.01307642000008
SAT00156
1 00157U   20000A 25089.00000000  .00000000  00000-0  00000-0 0  9999
2 00157  70.0000 270.0000 0000000   0.0000 243.0000 15.01307642000009
SAT00157
1 00158U   20000A 25089.00000000  .00000000  00000-0  00000-0 0  9990
2 00158  70.0000 270.0000 0000000   0.0000 279.0000 15.01307642000009
SAT00158
1 00159U   20000A 25089.00000000  .00000000  00000-0  00000-0 0  9991
2 00159  70.0000 270.0000 0000000   0.0000 315.0000 15.01307642000001
SAT00159
1 00160U   20000A 25089.00000000  .00000000  00000-0  00000-0 0  9993
2 00160  70.0000 270.0000 0000000   0.0000 351.0000 15.01307642000003
SAT00160
1 00161U   20000A 25089.00000000  .00000000  00000-0  00000-0 0  9994
2 00161  70.0000 288.0000 0000000   0.0000  28.8000 15.01307642000002
SAT00161
1 00162U   20000A 25089.00000000  .00000000  00000-0  00000-0 0  9995
2 00162  70.0000 288.0000 0000000   0.0000  64.8000 15.01307642000003
SAT00162
1 00163U   20000A 25089.00000000  .00000000  00000-0  00000-0 0  9996
2 00163  70.0000 288.0000 0000000   0.0000 100.8000 15.01307642000005
SAT00163
1 00164U   20000A 25089.00000000  .00000000  00000-0  00000-0 0  9997
2 00164  70.0000 288.0000 0000000   0.0000 136.8000 15.01307642000005
SAT00164
1 00165U   20000A 25089.00000000  .00000000  00000-0  00000-0 0  9998
2 00165  70.0000 288.0000 0000000   0.0000 172.8000 15.01307642000006
SAT00165
1 00166U   20000A 25089.00000000  .00000000  00000-0  00000-0 0  9999
2 00166  70.0000 288.0000 0000000   0.0000 208.8000 15.01307642000007
SAT00166
1 00167U   20000A 25089.00000000  .00000000  00000-0  00000-0 0  9990
2 00167  70.0000 288.0000 0000000   0.0000 244.8000 15.01307642000008
SAT00167
1 00168U   20000A 25089.00000000  .00000000  00000-0  00000-0 0  9991
2 00168  70.0000 288.0000 0000000   0.0000 280.8000 15.01307642000009
SAT00168
1 00169U   20000A 25089.00000000  .00000000  00000-0  00000-0 0  9992
2 00169  70.0000 288.0000 0000000   0.0000 316.8000 15.01307642000000
SAT00169
1 00170U   20000A 25089.00000000  .00000000  00000-0  00000-0 0  9994
2 00170  70.0000 288.0000 0000000   0.0000 352.8000 15.01307642000002
SAT00170
1 00171U   20000A 25089.00000000  .00000000  00000-0  00000-0 0  9995
2 00171  70.0000 306.0000 0000000   0.0000  30.6000 15.01307642000005
SAT00171
1 00172U   20000A 25089.00000000  .00000000  00000-0  00000-0 0  9996
2 00172  70.0000 306.0000 0000000   0.0000  66.6000 15.01307642000005
SAT00172
1 00173U   20000A 25089.00000000  .00000000  00000-0  00000-0 0  9997
2 00173  70.0000 306.0000 0000000   0.0000 102.6000 15.01307642000007
SAT00173
1 00174U   20000A 25089.00000000  .00000000  00000-0  00000-0 0  9998
2 00174  70.0000 306.0000 0000000   0.0000 138.6000 15.01307642000007
SAT00174
1 00175U   20000A 25089.00000000  .00000000  00000-0  00000-0 0  9999
2 00175  70.0000 306.0000 0000000   0.0000 174.6000 15.01307642000008
SAT00175
1 00176U   20000A 25089.00000000  .00000000  00000-0  00000-0 0  9990
2 00176  70.0000 306.0000 0000000   0.0000 210.6000 15.01307642000000
SAT00176
1 00177U   20000A 25089.00000000  .00000000  00000-0  00000-0 0  9991
2 00177  70.0000 306.0000 0000000   0.0000 246.6000 15.01307642000000
SAT00177
1 00178U   20000A 25089.00000000  .00000000  00000-0  00000-0 0  9992
2 00178  70.0000 306.0000 0000000   0.0000 282.6000 15.01307642000001
SAT00178
1 00179U   20000A 25089.00000000  .00000000  00000-0  00000-0 0  9993
2 00179  70.0000 306.0000 0000000   0.0000 318.6000 15.01307642000002
SAT00179
1 00180U   20000A 25089.00000000  .00000000  00000-0  00000-0 0  9995
2 00180  70.0000 306.0000 0000000   0.0000 354.6000 15.01307642000004
SAT00180
1 00181U   20000A 25089.00000000  .00000000  00000-0  00000-0 0  9996
2 00181  70.0000 324.0000 0000000   0.0000  32.4000 15.01307642000006
SAT00181
1 00182U   20000A 25089.00000000  .00000000  00000-0  00000-0 0  9997
2 00182  70.0000 324.0000 0000000   0.0000  68.4000 15.01307642000006
SAT00182
1 00183U   20000A 25089.00000000  .00000000  00000-0  00000-0 0  9998
2 00183  70.0000 324.0000 0000000   0.0000 104.4000 15.01307642000008
SAT00183
1 00184U   20000A 25089.00000000  .00000000  00000-0  00000-0 0  9999
2 00184  70.0000 324.0000 0000000   0.0000 140.4000 15.01307642000009
SAT00184
1 00185U   20000A 25089.00000000  .00000000  00000-0  00000-0 0  9990
2 00185  70.0000 324.0000 0000000   0.0000 176.4000 15.01307642000009
SAT00185
1 00186U   20000A 25089.00000000  .00000000  00000-0  00000-0 0  9991
2 00186  70.0000 324.0000 0000000   0.0000 212.4000 15.01307642000001
SAT00186
1 00187U   20000A 25089.00000000  .00000000  00000-0  00000-0 0  9992
2 00187  70.0000 324.0000 0000000   0.0000 248.4000 15.01307642000001
SAT00187
1 00188U   20000A 25089.00000000  .00000000  00000-0  00000-0 0  9993
2 00188  70.0000 324.0000 0000000   0.0000 284.4000 15.01307642000002
SAT00188
1 00189U   20000A 25089.00000000  .00000000  00000-0  00000-0 0  9994
2 00189  70.0000 324.0000 0000000   0.0000 320.4000 15.01307642000004
SAT00189
1 00190U   20000A 25089.00000000  .00000000  00000-0  00000-0 0  9996
2 00190  70.0000 324.0000 0000000   0.0000 356.4000 15.01307642000005
SAT00190
1 00191U   20000A 25089.00000000  .00000000  00000-0  00000-0 0  9997
2 00191  70.0000 342.0000 0000000   0.0000  34.2000 15.01307642000007
SAT00191
1 00192U   20000A 25089.00000000  .00000000  00000-0  00000-0 0  9998
2 00192  70.0000 342.0000 0000000   0.0000  70.2000 15.01307642000008
SAT00192
1 00193U   20000A 25089.00000000  .00000000  00000-0  00000-0 0  9999
2 00193  70.0000 342.0000 0000000   0.0000 106.2000 15.01307642000009
SAT00193
1 00194U   20000A 25089.00000000  .00000000  00000-0  00000-0 0  9990
2 00194  70.0000 342.0000 0000000   0.0000 142.2000 15.01307642000000
SAT00194
1 00195U   20000A 25089.00000000  .00000000  00000-0  00000-0 0  9991
2 00195  70.0000 342.0000 0000000   0.0000 178.2000 15.01307642000000
SAT00195
1 00196U   20000A 25089.00000000  .00000000  00000-0  00000-0 0  9992
2 00196  70.0000 342.0000 0000000   0.0000 214.2000 15.01307642000002
SAT00196
1 00197U   20000A 25089.00000000  .00000000  00000-0  00000-0 0  9993
2 00197  70.0000 342.0000 0000000   0.0000 250.2000 15.01307642000003
SAT00197
1 00198U   20000A 25089.00000000  .00000000  00000-0  00000-0 0  9994
2 00198  70.0000 342.0000 0000000   0.0000 286.2000 15.01307642000003
SAT00198
1 00199U   20000A 25089.00000000  .00000000  00000-0  00000-0 0  9995
2 00199  70.0000 342.0000 0000000   0.0000 322.2000 15.01307642000005
SAT00199
1 00200U   20000A 25089.00000000  .00000000  00000-0  00000-0 0  9998
2 00200  70.0000 342.0000 0000000   0.0000 358.2000 15.01307642000007
